FLOCK 4G-13             
1 62621U 25009N   26068.70638971  .00053076  00000+0  16695-2 0  9995
2 62621  97.4019 151.0918 0003801 292.7207  67.3633 15.32770015 63700
STARLINK-35731          
1 66228U 25244Y   26068.70695697  .00020430  00000+0  69964-3 0  9997
2 66228  53.1598 229.7217 0001213  65.7768 294.3359 15.30216386 21668
